#aV2014  8 10  0  0  0.00000000     288 DD+AD WGS84 FIT  NGA
## 1805      0.00000000   300.00000000 56879 0.0000000000000
+   32     1  2  3  4  5  6  7  8  9 10 11 12 13 14 15 16 17
+         18 19 20 21 22 23 24 25 26 27 28 29 30 31 32  0  0
+          0  0  0  0  0  0  0  0  0  0  0  0  0  0  0  0  0
+          0  0  0  0  0  0  0  0  0  0  0  0  0  0  0  0  0
+          0  0  0  0  0  0  0  0  0  0  0  0  0  0  0  0  0
++         2  2  2  2  2  2  2  2  2  2  2  2  2  2  2  2  2
++         2  2  2  2  2  2  2  2  2  2  2  2  2  2  2  0  0
++         0  0  0  0  0  0  0  0  0  0  0  0  0  0  0  0  0
++         0  0  0  0  0  0  0  0  0  0  0  0  0  0  0  0  0
++         0  0  0  0  0  0  0  0  0  0  0  0  0  0  0  0  0
%c cc cc ccc ccc cccc cccc cccc cccc ccccc ccccc ccccc ccccc
%c cc cc ccc ccc cccc cccc cccc cccc ccccc ccccc ccccc ccccc
%f  0.0000000  0.000000000  0.00000000000  0.000000000000000
%f  0.0000000  0.000000000  0.00000000000  0.000000000000000
%i    0    0    0    0      0      0      0      0         0
%i    0    0    0    0      0      0      0      0         0
/*      NGA, ST. LOUIS,MO.                                  
/*   EPHEMERIS COMPUTED FROM  1 DAYS OF DATA                
/*   EPOCHA SMOOTHER                                       
/* CCCCCCCCCCCCCCCCCCCCCCCCCCCCCCCCCCCCCCCCCCCCCCCCCCCCCCCCC
*  2014  8 10 14 25  0.00000000
P  1   6545.607329 -18798.212958 -17549.396530     19.363072                    
V  1  19643.936600 -10618.594012  18890.597540      0.006908                    
P  2 -22391.428311  13564.372937  -2143.776228    511.779875                    
V  2    360.884680  -4989.451849 -31449.518058      0.022033                    
P  3   6830.700808 -20411.604428  14915.460813    402.070132                    
V  3   6839.682547  19046.178003  22234.567088      0.049146                    
P  4 -12148.502758 -10693.444668 -21378.242614      7.164175                    
V  4  21828.591254 -15048.310520  -4694.445553     -0.001048                    
P  5 -17638.935267   6347.212696  18842.000373   -350.559112                    
V  5 -20785.891519 -12075.118162 -15192.283808      0.034051                    
P  6 -22681.085775   3828.603732 -13278.967668     -3.779637                    
V  6  12853.513788 -11116.790351 -25192.898021     -0.012700                    
P  7  -7616.168095 -12900.070282  22008.480980    378.577948                    
V  7  23661.940893 -14435.717916   -619.506813      0.042818                    
P  8 -12222.503245  -9701.341101  21760.591924     15.138884                    
V  8  24242.283911 -11933.381240   7754.743276      0.000957                    
P  9 -13101.646999  12664.554428  19719.989325     13.319440                    
V  9  -2530.454428 -24371.076855  13956.017936      0.062313                    
P 10 -24761.869651  -7669.691469   6380.978053   -137.282555                    
V 10  -6136.854204  -6563.588695 -29648.655953     -0.015348                    
P 11   9039.033069 -23335.844595  -9120.988798   -512.252812                    
V 11  10420.960651  -5925.142434  27185.653824     -0.029872                    
P 12   -396.921952  15919.463126 -21373.736371    223.999826                    
V 12 -23644.330717 -12709.082676  -8850.611001      0.026021                    
P 13  -4021.423965 -24904.515885   7890.172042    -29.595513                    
V 13   2863.952685 -10081.090917 -30064.874357     -0.039129                    
P 14  13648.135163  10211.383423 -20179.735086    146.116736                    
V 14  -1462.165023  26048.648908  11904.777287     -0.036226                    
P 15  -4595.476949  24268.967268   9301.550183   -196.089591                    
V 15  -4615.065559 -11646.470323  28231.946478     -0.022001                    
P 16  17579.012081  -4577.139802  19447.805079   -202.290398                    
V 16  20895.831338  13061.545405 -15420.952917      0.023664                    
P 17 -13854.711451 -10240.234736 -20016.608608   -115.497694                    
V 17    641.221972 -25918.110784  12428.560258     -0.027879                    
P 18  18597.192241  16998.873194   9366.549918    337.167254                    
V 18 -11467.279697  -2095.718520  27643.920316      0.025052                    
P 19   8802.279351 -21928.252697  11503.507745   -472.792966                    
V 19   2028.250476  15097.568664  27296.912283     -0.019479                    
P 20  -4424.245977 -17776.068425 -19442.944852    220.457226                    
V 20  23037.047006   8173.850325 -12771.350909      0.043210                    
P 21  13075.458802  10331.982912  21391.519245   -377.586666                    
V 21 -21177.673361  14610.097557   5634.388964     -0.021070                    
P 22  24644.570151   9607.780879  -3030.926962    257.666669                    
V 22   1989.137552   5261.274464  30475.245300      0.030737                    
P 23   -140.002234 -26274.208363  -1506.344796    -43.427831                    
V 23   3602.654693   1921.274829 -31735.247053     -0.029422                    
P 24 -10321.418167  19466.979525 -14780.697038    -33.291219                    
V 24 -16840.234743   8611.224847  23228.201525     -0.005697                    
P 25  12302.474853  17886.265732 -15470.359157     23.845657                    
V 25 -18041.721401  -7341.355134 -22822.403503     -0.005498                    
P 26 -12227.157048  15491.199057  16981.747189    -15.087555                    
V 26   -836.946398 -22989.859945  19899.340480     -0.129525                    
P 27  12679.204744 -13031.932311  19323.451373      4.900076                    
V 27   2709.952431  24464.815369  14773.131924      0.032434                    
P 28 -22604.851607 -14071.306139    939.864732    376.148129                    
V 28   1336.606597  -1381.463760  32215.093267      0.027445                    
P 29   5676.903522  24651.292972   8196.919959    552.713512                    
V 29  -2274.745845  10351.253151 -29617.549038      0.025998                    
P 30 -17164.325520  -6078.197157  19347.461492    -46.381841                    
V 30  20925.064992 -12938.875096  14449.279502     -0.055892                    
P 31  23409.669914  -5112.924444 -11636.269755    332.836551                    
V 31 -11786.019741   9236.250132 -27112.008505     -0.003221                    
P 32   9636.045225 -12197.574358 -21463.223055   -365.949766                    
V 32  23107.923188  14813.539177   2491.589094      0.084331                    
EOF
